[{"OBJECT_NAME":"HULIANWANG DIGUI-97","OBJECT_ID":"2025-258B","EPOCH":"2026-03-04T10:32:05.726688","MEAN_MOTION":13.29332265,"ECCENTRICITY":3.98e-5,"INCLINATION":50.0019,"RA_OF_ASC_NODE":311.5805,"ARG_OF_PERICENTER":94.7591,"MEAN_ANOMALY":265.3327,"EPHEMERIS_TYPE":0,"CLASSIFICATION_TYPE":"U","NORAD_CAT_ID":66413,"ELEMENT_SET_NO":999,"REV_AT_EPOCH":1579,"BSTAR":0.00017114,"MEAN_MOTION_DOT":-4.5e-7,"MEAN_MOTION_DDOT":0},{"OBJECT_NAME":"HULIANWANG DIGUI-98","OBJECT_ID":"2025-258C","EPOCH":"2026-03-04T10:20:01.823424","MEAN_MOTION":13.2933385,"ECCENTRICITY":4.39e-5,"INCLINATION":50.0056,"RA_OF_ASC_NODE":311.5787,"ARG_OF_PERICENTER":107.8571,"MEAN_ANOMALY":252.2349,"EPHEMERIS_TYPE":0,"CLASSIFICATION_TYPE":"U","NORAD_CAT_ID":66414,"ELEMENT_SET_NO":999,"REV_AT_EPOCH":1579,"BSTAR":0.00017679,"MEAN_MOTION_DOT":-4.2e-7,"MEAN_MOTION_DDOT":0},{"OBJECT_NAME":"HULIANWANG DIGUI-99","OBJECT_ID":"2025-258D","EPOCH":"2026-03-04T11:20:12.597792","MEAN_MOTION":13.29331419,"ECCENTRICITY":3.33e-5,"INCLINATION":50.0054,"RA_OF_ASC_NODE":311.1297,"ARG_OF_PERICENTER":87.8851,"MEAN_ANOMALY":272.206,"EPHEMERIS_TYPE":0,"CLASSIFICATION_TYPE":"U","NORAD_CAT_ID":66415,"ELEMENT_SET_NO":999,"REV_AT_EPOCH":1579,"BSTAR":0.00015858,"MEAN_MOTION_DOT":-5.0e-7,"MEAN_MOTION_DDOT":0},{"OBJECT_NAME":"HULIANWANG DIGUI-100","OBJECT_ID":"2025-258E","EPOCH":"2026-03-04T10:08:00.568320","MEAN_MOTION":13.2933434,"ECCENTRICITY":3.14e-5,"INCLINATION":50.0058,"RA_OF_ASC_NODE":311.5376,"ARG_OF_PERICENTER":83.944,"MEAN_ANOMALY":276.1468,"EPHEMERIS_TYPE":0,"CLASSIFICATION_TYPE":"U","NORAD_CAT_ID":66416,"ELEMENT_SET_NO":999,"REV_AT_EPOCH":1580,"BSTAR":0.00015874,"MEAN_MOTION_DOT":-5.0e-7,"MEAN_MOTION_DDOT":0},{"OBJECT_NAME":"HULIANWANG DIGUI-101","OBJECT_ID":"2025-258F","EPOCH":"2026-03-04T06:19:28.951392","MEAN_MOTION":13.29332555,"ECCENTRICITY":3.42e-5,"INCLINATION":50.0008,"RA_OF_ASC_NODE":311.9752,"ARG_OF_PERICENTER":79.481,"MEAN_ANOMALY":280.61,"EPHEMERIS_TYPE":0,"CLASSIFICATION_TYPE":"U","NORAD_CAT_ID":66417,"ELEMENT_SET_NO":999,"REV_AT_EPOCH":1578,"BSTAR":0.00017267,"MEAN_MOTION_DOT":-4.4e-7,"MEAN_MOTION_DDOT":0},{"OBJECT_NAME":"HULIANWANG DIGUI-102","OBJECT_ID":"2025-258G","EPOCH":"2026-03-04T11:08:07.629216","MEAN_MOTION":13.29334513,"ECCENTRICITY":3.58e-5,"INCLINATION":50.0022,"RA_OF_ASC_NODE":311.0466,"ARG_OF_PERICENTER":101.3883,"MEAN_ANOMALY":258.7029,"EPHEMERIS_TYPE":0,"CLASSIFICATION_TYPE":"U","NORAD_CAT_ID":66418,"ELEMENT_SET_NO":999,"REV_AT_EPOCH":1580,"BSTAR":0.00015557,"MEAN_MOTION_DOT":-5.2e-7,"MEAN_MOTION_DDOT":0},{"OBJECT_NAME":"HULIANWANG DIGUI-103","OBJECT_ID":"2025-258H","EPOCH":"2026-03-04T10:56:07.626912","MEAN_MOTION":13.29333478,"ECCENTRICITY":2.89e-5,"INCLINATION":50.0015,"RA_OF_ASC_NODE":310.9953,"ARG_OF_PERICENTER":81.7697,"MEAN_ANOMALY":278.3208,"EPHEMERIS_TYPE":0,"CLASSIFICATION_TYPE":"U","NORAD_CAT_ID":66419,"ELEMENT_SET_NO":999,"REV_AT_EPOCH":1580,"BSTAR":0.00014719,"MEAN_MOTION_DOT":-5.6e-7,"MEAN_MOTION_DDOT":0},{"OBJECT_NAME":"HULIANWANG DIGUI-104","OBJECT_ID":"2025-258J","EPOCH":"2026-03-04T10:44:07.120896","MEAN_MOTION":13.29332866,"ECCENTRICITY":3.78e-5,"INCLINATION":50.0032,"RA_OF_ASC_NODE":310.9743,"ARG_OF_PERICENTER":105.3977,"MEAN_ANOMALY":254.6937,"EPHEMERIS_TYPE":0,"CLASSIFICATION_TYPE":"U","NORAD_CAT_ID":66420,"ELEMENT_SET_NO":999,"REV_AT_EPOCH":1579,"BSTAR":0.0001546,"MEAN_MOTION_DOT":-5.2e-7,"MEAN_MOTION_DDOT":0},{"OBJECT_NAME":"HULIANWANG DIGUI-105","OBJECT_ID":"2025-285A","EPOCH":"2026-03-04T10:49:44.098176","MEAN_MOTION":13.293317,"ECCENTRICITY":7.5e-6,"INCLINATION":50.0044,"RA_OF_ASC_NODE":161.8512,"ARG_OF_PERICENTER":302.6449,"MEAN_ANOMALY":57.4415,"EPHEMERIS_TYPE":0,"CLASSIFICATION_TYPE":"U","NORAD_CAT_ID":66915,"ELEMENT_SET_NO":999,"REV_AT_EPOCH":1212,"BSTAR":6.5697e-5,"MEAN_MOTION_DOT":-9.4e-7,"MEAN_MOTION_DDOT":0},{"OBJECT_NAME":"HULIANWANG DIGUI-106","OBJECT_ID":"2025-285B","EPOCH":"2026-03-03T20:12:17.992224","MEAN_MOTION":13.29202558,"ECCENTRICITY":0.0004175,"INCLINATION":50.0017,"RA_OF_ASC_NODE":163.9826,"ARG_OF_PERICENTER":31.7419,"MEAN_ANOMALY":328.3704,"EPHEMERIS_TYPE":0,"CLASSIFICATION_TYPE":"U","NORAD_CAT_ID":66916,"ELEMENT_SET_NO":999,"REV_AT_EPOCH":1204,"BSTAR":-1.4167,"MEAN_MOTION_DOT":-0.00628747,"MEAN_MOTION_DDOT":0},{"OBJECT_NAME":"HULIANWANG DIGUI-107","OBJECT_ID":"2025-285C","EPOCH":"2026-03-04T10:25:41.060064","MEAN_MOTION":13.29331212,"ECCENTRICITY":3.5e-6,"INCLINATION":50.0021,"RA_OF_ASC_NODE":161.7468,"ARG_OF_PERICENTER":346.8651,"MEAN_ANOMALY":13.222,"EPHEMERIS_TYPE":0,"CLASSIFICATION_TYPE":"U","NORAD_CAT_ID":66917,"ELEMENT_SET_NO":999,"REV_AT_EPOCH":1212,"BSTAR":3.4348e-5,"MEAN_MOTION_DOT":-1.08e-6,"MEAN_MOTION_DDOT":0},{"OBJECT_NAME":"HULIANWANG DIGUI-108","OBJECT_ID":"2025-285D","EPOCH":"2026-03-04T12:01:54.135264","MEAN_MOTION":13.29331693,"ECCENTRICITY":3.8e-6,"INCLINATION":50.0042,"RA_OF_ASC_NODE":161.4505,"ARG_OF_PERICENTER":15.5825,"MEAN_ANOMALY":344.5048,"EPHEMERIS_TYPE":0,"CLASSIFICATION_TYPE":"U","NORAD_CAT_ID":66918,"ELEMENT_SET_NO":999,"REV_AT_EPOCH":1213,"BSTAR":7.2262e-5,"MEAN_MOTION_DOT":-9.1e-7,"MEAN_MOTION_DDOT":0},{"OBJECT_NAME":"HULIANWANG DIGUI-109","OBJECT_ID":"2025-285E","EPOCH":"2026-03-04T11:49:52.460256","MEAN_MOTION":13.29331471,"ECCENTRICITY":1.6e-6,"INCLINATION":50.0066,"RA_OF_ASC_NODE":161.4267,"ARG_OF_PERICENTER":38.7375,"MEAN_ANOMALY":321.3499,"EPHEMERIS_TYPE":0,"CLASSIFICATION_TYPE":"U","NORAD_CAT_ID":66919,"ELEMENT_SET_NO":999,"REV_AT_EPOCH":1214,"BSTAR":9.231e-5,"MEAN_MOTION_DOT":-8.1e-7,"MEAN_MOTION_DDOT":0},{"OBJECT_NAME":"HULIANWANG DIGUI-110","OBJECT_ID":"2025-285F","EPOCH":"2026-03-04T11:37:51.168864","MEAN_MOTION":13.29331109,"ECCENTRICITY":3.1e-6,"INCLINATION":50.0098,"RA_OF_ASC_NODE":161.4089,"ARG_OF_PERICENTER":342.4852,"MEAN_ANOMALY":17.6019,"EPHEMERIS_TYPE":0,"CLASSIFICATION_TYPE":"U","NORAD_CAT_ID":66920,"ELEMENT_SET_NO":999,"REV_AT_EPOCH":1213,"BSTAR":4.1472e-5,"MEAN_MOTION_DOT":-1.05e-6,"MEAN_MOTION_DDOT":0},{"OBJECT_NAME":"HULIANWANG DIGUI-111","OBJECT_ID":"2025-285G","EPOCH":"2026-03-04T11:25:49.302912","MEAN_MOTION":13.29331036,"ECCENTRICITY":1.3e-6,"INCLINATION":50.0115,"RA_OF_ASC_NODE":161.3787,"ARG_OF_PERICENTER":318.9973,"MEAN_ANOMALY":41.0898,"EPHEMERIS_TYPE":0,"CLASSIFICATION_TYPE":"U","NORAD_CAT_ID":66921,"ELEMENT_SET_NO":999,"REV_AT_EPOCH":1213,"BSTAR":7.2533e-5,"MEAN_MOTION_DOT":-9.0e-7,"MEAN_MOTION_DDOT":0},{"OBJECT_NAME":"HULIANWANG DIGUI-112","OBJECT_ID":"2025-285H","EPOCH":"2026-03-04T11:13:47.684928","MEAN_MOTION":13.29331541,"ECCENTRICITY":4.3e-6,"INCLINATION":50.0078,"RA_OF_ASC_NODE":161.3079,"ARG_OF_PERICENTER":332.2034,"MEAN_ANOMALY":27.8836,"EPHEMERIS_TYPE":0,"CLASSIFICATION_TYPE":"U","NORAD_CAT_ID":66922,"ELEMENT_SET_NO":999,"REV_AT_EPOCH":1213,"BSTAR":0.0001457,"MEAN_MOTION_DOT":-5.6e-7,"MEAN_MOTION_DDOT":0}]
