HULIANWANG DIGUI-97     
1 66413U 25258B   26063.43895517 -.00000045  00000+0  17114-3 0  9997
2 66413  50.0019 311.5805 0000398  94.7591 265.3327 13.29332265 15791
HULIANWANG DIGUI-98     
1 66414U 25258C   26063.43057666 -.00000042  00000+0  17679-3 0  9996
2 66414  50.0056 311.5787 0000439 107.8571 252.2349 13.29333850 15792
HULIANWANG DIGUI-99     
1 66415U 25258D   26063.47236803 -.00000050  00000+0  15858-3 0  9999
2 66415  50.0054 311.1297 0000333  87.8851 272.2060 13.29331419 15795
HULIANWANG DIGUI-100    
1 66416U 25258E   26063.42222880 -.00000050  00000+0  15874-3 0  9993
2 66416  50.0058 311.5376 0000314  83.9440 276.1468 13.29334340 15805
HULIANWANG DIGUI-101    
1 66417U 25258F   26063.26352953 -.00000044  00000+0  17267-3 0  9992
2 66417  50.0008 311.9752 0000342  79.4810 280.6100 13.29332555 15781
HULIANWANG DIGUI-102    
1 66418U 25258G   26063.46397719 -.00000052  00000+0  15557-3 0  9993
2 66418  50.0022 311.0466 0000358 101.3883 258.7029 13.29334513 15808
HULIANWANG DIGUI-103    
1 66419U 25258H   26063.45564383 -.00000056  00000+0  14719-3 0  9999
2 66419  50.0015 310.9953 0000289  81.7697 278.3208 13.29333478 15803
HULIANWANG DIGUI-104    
1 66420U 25258J   26063.44730464 -.00000052  00000+0  15460-3 0  9995
2 66420  50.0032 310.9743 0000378 105.3977 254.6937 13.29332866 15798
HULIANWANG DIGUI-105    
1 66915U 25285A   26063.45120484 -.00000094  00000+0  65697-4 0  9994
2 66915  50.0044 161.8512 0000075 302.6449  57.4415 13.29331700 12127
HULIANWANG DIGUI-106    
1 66916U 25285B   26062.84187491 -.00628747  00000+0 -14167+1 0  9992
2 66916  50.0017 163.9826 0004175  31.7419 328.3704 13.29202558 12041
HULIANWANG DIGUI-107    
1 66917U 25285C   26063.43450301 -.00000108  00000+0  34348-4 0  9993
2 66917  50.0021 161.7468 0000035 346.8651  13.2220 13.29331212 12126
HULIANWANG DIGUI-108    
1 66918U 25285D   26063.50132101 -.00000091  00000+0  72262-4 0  9995
2 66918  50.0042 161.4505 0000038  15.5825 344.5048 13.29331693 12137
HULIANWANG DIGUI-109    
1 66919U 25285E   26063.49296829 -.00000081  00000+0  92310-4 0  9997
2 66919  50.0066 161.4267 0000016  38.7375 321.3499 13.29331471 12140
HULIANWANG DIGUI-110    
1 66920U 25285F   26063.48462001 -.00000105  00000+0  41472-4 0  9995
2 66920  50.0098 161.4089 0000031 342.4852  17.6019 13.29331109 12131
HULIANWANG DIGUI-111    
1 66921U 25285G   26063.47626508 -.00000090  00000+0  72533-4 0  9994
2 66921  50.0115 161.3787 0000013 318.9973  41.0898 13.29331036 12133
HULIANWANG DIGUI-112    
1 66922U 25285H   26063.46791302 -.00000056  00000+0  14570-3 0  9997
2 66922  50.0078 161.3079 0000043 332.2034  27.8836 13.29331541 12131
